STARLINK-32608          
1 62124U 24222L   26068.18745894  .00034607  00000+0  12608-2 0  9993
2 62124  43.0006 138.8927 0001275 238.5627 121.5100 15.27590701 72664
HAWK-11C                
1 62381U 24247E   26068.51221537  .00009223  00000+0  33290-3 0  9992
2 62381  45.0045 114.8762 0005900 329.7040  30.3502 15.28848020 67743
